[{"OBJECT_NAME":"STARLINK-30116","OBJECT_ID":"2023-107J","EPOCH":"2026-03-09T03:38:04.630272","MEAN_MOTION":15.26729842,"ECCENTRICITY":0.00019616,"INCLINATION":43.0029,"RA_OF_ASC_NODE":339.2408,"ARG_OF_PERICENTER":277.6766,"MEAN_ANOMALY":82.3863,"EPHEMERIS_TYPE":0,"CLASSIFICATION_TYPE":"U","NORAD_CAT_ID":57465,"ELEMENT_SET_NO":999,"REV_AT_EPOCH":14506,"BSTAR":-5.3767112e-5,"MEAN_MOTION_DOT":-1.702e-5,"MEAN_MOTION_DDOT":0},{"OBJECT_NAME":"LYNK TOWER 5","OBJECT_ID":"2024-043Z","EPOCH":"2026-03-09T22:11:51.175104","MEAN_MOTION":15.29454506,"ECCENTRICITY":0.00104056,"INCLINATION":97.5458,"RA_OF_ASC_NODE":204.7305,"ARG_OF_PERICENTER":234.6422,"MEAN_ANOMALY":125.3846,"EPHEMERIS_TYPE":0,"CLASSIFICATION_TYPE":"U","NORAD_CAT_ID":59121,"ELEMENT_SET_NO":999,"REV_AT_EPOCH":11186,"BSTAR":0.00031901545,"MEAN_MOTION_DOT":9.048e-5,"MEAN_MOTION_DDOT":0}]
